{"fetched_at":"2026-03-29T16:36:15Z","count":15609,"tles":[{"name":"STARLINK-31307","line1":"1 59089U 24041R   26087.71750162 -.00000071  00000+0  69413-5 0  9990","line2":"2 59089  43.0028 203.0702 0001270 208.0858 151.9925 15.27597158117231","category":"Starlink"}]}